PTD-4 (LISA-T)          
1 60565U 24149DB  26068.66784315  .00023090  00000+0  11421-2 0  9998
2 60565  97.6982 155.5534 0002875  46.4623 313.6849 15.17820166 85701
ICEYE-X58               
1 66751U 25276CP  26068.73711844  .00005033  00000+0  24630-3 0  9992
2 66751  97.4274 144.0257 0002447 349.5523  10.5660 15.18634062 15326
