[{"OBJECT_NAME":"PTD-4 (LISA-T)","OBJECT_ID":"2024-149DB","EPOCH":"2026-03-09T16:01:41.648160","MEAN_MOTION":15.17820166,"ECCENTRICITY":0.00028752,"INCLINATION":97.6982,"RA_OF_ASC_NODE":155.5534,"ARG_OF_PERICENTER":46.4623,"MEAN_ANOMALY":313.6849,"EPHEMERIS_TYPE":0,"CLASSIFICATION_TYPE":"U","NORAD_CAT_ID":60565,"ELEMENT_SET_NO":999,"REV_AT_EPOCH":8570,"BSTAR":0.0011421385,"MEAN_MOTION_DOT":0.0002309,"MEAN_MOTION_DDOT":0},{"OBJECT_NAME":"ICEYE-X58","OBJECT_ID":"2025-276CP","EPOCH":"2026-03-09T17:41:27.034080","MEAN_MOTION":15.18634062,"ECCENTRICITY":0.0002447,"INCLINATION":97.4274,"RA_OF_ASC_NODE":144.0257,"ARG_OF_PERICENTER":349.5523,"MEAN_ANOMALY":10.566,"EPHEMERIS_TYPE":0,"CLASSIFICATION_TYPE":"U","NORAD_CAT_ID":66751,"ELEMENT_SET_NO":999,"REV_AT_EPOCH":1532,"BSTAR":0.00024630066,"MEAN_MOTION_DOT":5.033e-5,"MEAN_MOTION_DDOT":0}]
